NORAD_CAT_ID,OBJECT_NAME,OBJECT_TYPE,EPOCH,MEAN_MOTION,ECCENTRICITY,INCLINATION,RA_OF_ASC_NODE,ARG_OF_PERICENTER,MEAN_ANOMALY,BSTAR,MEAN_MOTION_DOT,MEAN_MOTION_DDOT,TLE_LINE0,TLE_LINE1,TLE_LINE2,SEMIMAJOR_AXIS,PERIOD,APOGEE,PERIGEE,DECAYED
51774.0,STARLINK-3629,PAYLOAD,2022-07-09 14:00:01,15.08813436,0.0001664,53.2151,230.5958,51.7433,118.5947,3.452e-05,2.61e-06,0.0,0 STARLINK-3629,1 51774U 22017G   22190.58334491  .00000261  00000-0  34520-4 0  9994,2 51774  53.2151 230.5958 0001664  51.7433 118.5947 15.08813436  1303,6917.962,95.439,540.9780000000002,538.675,0.0
51774.0,STARLINK-3629,PAYLOAD,2022-07-09 16:00:00,15.08838398,0.0001638,53.2149,230.2213,52.6121,210.6107,-0.0037577,-0.00059595,0.0,0 STARLINK-3629,1 51774U 22017G   22190.66667824 -.00059595  00000-0 -37577-2 0  9991,2 51774  53.2149 230.2213 0001638  52.6121 210.6107 15.08838398 21922,6917.885,95.438,540.883,538.617,0.0
51774.0,STARLINK-3629,PAYLOAD,2022-07-09 20:00:01,15.08808171,0.0001579,53.2151,229.4721,58.0525,30.9638,-0.0018407,-0.00029438,0.0,0 STARLINK-3629,1 51774U 22017G   22190.83334491 -.00029438  00000-0 -18407-2 0  9995,2 51774  53.2151 229.4721 0001579  58.0525  30.9638 15.08808171  1309,6917.978,95.44,540.935,538.75,0.0
51774.0,STARLINK-3629,PAYLOAD,2022-07-10 06:00:00,15.08812746,0.0001581,53.215,227.6024,58.9691,134.4729,0.00082082,0.0001279,0.0,0 STARLINK-3629,1 51774U 22017G   22191.25001157  .00012790  00000-0  82082-3 0  9994,2 51774  53.2150 227.6024 0001581  58.9691 134.4729 15.08812746 22015,6917.964,95.439,540.922,538.735,0.0
51774.0,STARLINK-3629,PAYLOAD,2022-07-10 14:00:01,15.0881017,0.0001645,53.2144,226.107,51.13800000000001,153.8723,0.0021717,0.00034416,0.0,0 STARLINK-3629,1 51774U 22017G   22191.58334491  .00034416  00000-0  21717-2 0  9996,2 51774  53.2144 226.1070 0001645  51.1380 153.8723 15.08810170  1301,6917.972,95.439,540.975,538.6990000000002,0.0
51774.0,STARLINK-3629,PAYLOAD,2022-07-10 22:00:00,15.08810693,0.0001501999999999,53.2143,224.6088,57.5855,159.0088,0.0020365,0.00032246,0.0,0 STARLINK-3629,1 51774U 22017G   22191.91667824  .00032246  00000-0  20365-2 0  9999,2 51774  53.2143 224.6088 0001502  57.5855 159.0088 15.08810693  1303,6917.97,95.439,540.874,538.7959999999998,0.0
51774.0,STARLINK-3629,PAYLOAD,2022-07-11 14:00:01,15.08822009,0.0001696,53.2139,221.6179,50.8565,188.9002,0.0016706,0.00026387,0.0,0 STARLINK-3629,1 51774U 22017G   22192.58334491  .00026387  00000-0  16706-2 0  9997,2 51774  53.2139 221.6179 0001696  50.8565 188.9002 15.08822009 22218,6917.935,95.439,540.974,538.627,0.0
51774.0,STARLINK-3629,PAYLOAD,2022-07-11 22:00:00,15.08814882,0.0001573,53.2139,220.1196,56.9623,194.3888,0.0023988,0.00038069,0.0,0 STARLINK-3629,1 51774U 22017G   22192.91667824  .00038069  00000-0  23988-2 0  9993,2 51774  53.2139 220.1196 0001573  56.9623 194.3888 15.08814882  1307,6917.956999999999,95.439,540.91,538.734,0.0
51774.0,STARLINK-3629,PAYLOAD,2022-07-12 06:00:00,15.08852802,0.0001696999999999,53.2139,218.6243,56.1131,206.8187,-0.0015407,-0.00024733,0.0,0 STARLINK-3629,1 51774U 22017G   22193.25001157 -.00024733  00000-0 -15407-2 0  9994,2 51774  53.2139 218.6243 0001697  56.1131 206.8187 15.08852802 22314,6917.840999999999,95.437,540.88,538.5319999999998,0.0
51774.0,STARLINK-3629,PAYLOAD,2022-07-12 14:00:01,15.08839298,0.0001771999999999,53.2136,217.1285,50.5428,223.9916,0.0012249,0.0001926,0.0,0 STARLINK-3629,1 51774U 22017G   22193.58334491  .00019260  00000-0  12249-2 0  9998,2 51774  53.2136 217.1285 0001772  50.5428 223.9916 15.08839298  1302,6917.8830000000025,95.438,540.9730000000002,538.5219999999998,0.0
51774.0,STARLINK-3629,PAYLOAD,2022-07-12 22:00:00,15.08826465,0.0001659,53.2138,215.6301,56.9809,229.1651,0.002892,0.00046022,0.0,0 STARLINK-3629,1 51774U 22017G   22193.91667824  .00046022  00000-0  28920-2 0  9993,2 51774  53.2138 215.6301 0001659  56.9809 229.1651 15.08826465 22414,6917.922,95.438,540.934,538.639,0.0
51774.0,STARLINK-3629,PAYLOAD,2022-07-13 14:00:01,15.08867297,0.00018,53.2137,212.6388,49.6643,259.6895,-0.0019396,-0.00031048,0.0,0 STARLINK-3629,1 51774U 22017G   22194.58334491 -.00031048  00000-0 -19396-2 0  9999,2 51774  53.2137 212.6388 0001800  49.6643 259.6895 15.08867297  1309,6917.797,95.436,540.9069999999998,538.4169999999998,0.0
51774.0,STARLINK-3629,PAYLOAD,2022-07-13 16:00:00,15.08881974,0.000178,53.2139,212.2641,50.5749,351.6796,-0.0047154,-0.00074643,0.0,0 STARLINK-3629,1 51774U 22017G   22194.66667824 -.00074643  00000-0 -47154-2 0  9998,2 51774  53.2139 212.2641 0001780  50.5749 351.6796 15.08881974 22522,6917.752,95.435,540.8480000000002,538.386,0.0
51774.0,STARLINK-3629,PAYLOAD,2022-07-13 22:00:00,15.08807239,0.0001626999999999,53.2141,211.1406,55.2301,265.7494,0.0029442,0.00046839,0.0,0 STARLINK-3629,1 51774U 22017G   22194.91667824  .00046839  00000-0  29442-2 0  9990,2 51774  53.2141 211.1406 0001627  55.2301 265.7494 15.08807239  1303,6917.981,95.44,540.971,538.72,0.0
51774.0,STARLINK-3629,PAYLOAD,2022-07-14 08:00:01,15.0883948,0.0001828,53.2142,209.2716,51.4899,13.9659,-0.00078209,-0.00012714,0.0,0 STARLINK-3629,1 51774U 22017G   22195.33334491 -.00012714  00000-0 -78209-3 0  9991,2 51774  53.2142 209.2716 0001828  51.4899  13.9659 15.08839480 22626,6917.882,95.438,541.012,538.482,0.0
51774.0,STARLINK-3629,PAYLOAD,2022-07-14 14:00:01,15.08840292,0.0001804,53.2141,208.1491,48.6286,295.5143,-0.00023916,-4.092e-05,0.0,0 STARLINK-3629,1 51774U 22017G   22195.58334491 -.00004092  00000-0 -23916-3 0  9993,2 51774  53.2141 208.1491 0001804  48.6286 295.5143 15.08840292  1306,6917.879,95.438,540.992,538.497,0.0
51774.0,STARLINK-3629,PAYLOAD,2022-07-14 22:00:00,15.08814228,0.0001654,53.2144,206.6511,56.3414,299.4044,0.0029961,0.00047684,0.0,0 STARLINK-3629,1 51774U 22017G   22195.91667824  .00047684  00000-0  29961-2 0  9996,2 51774  53.2144 206.6511 0001654  56.3414 299.4044 15.08814228  1300,6917.959,95.439,540.9680000000002,538.68,0.0
51774.0,STARLINK-3629,PAYLOAD,2022-07-15 06:00:00,15.08853369,0.0001794,53.2146,205.156,52.9112,314.4197,-0.0016002,-0.00025675,0.0,0 STARLINK-3629,1 51774U 22017G   22196.25001157 -.00025675  00000-0 -16002-2 0  9995,2 51774  53.2146 205.1560 0001794  52.9112 314.4197 15.08853369 22761,6917.84,95.437,540.946,538.4630000000002,0.0
51774.0,STARLINK-3629,PAYLOAD,2022-07-15 14:00:01,15.08851207,0.0001817,53.2144,203.6595,49.6776,329.25,-0.00070613,-0.00011512,0.0,0 STARLINK-3629,1 51774U 22017G   22196.58334491 -.00011512  00000-0 -70613-3 0  9995,2 51774  53.2144 203.6595 0001817  49.6776 329.2500 15.08851207  1303,6917.846,95.437,540.9680000000002,538.4540000000002,0.0
51774.0,STARLINK-3629,PAYLOAD,2022-07-15 22:00:00,15.08823627,0.0001657,53.2147,202.1616,57.7161,332.8246,0.002991,0.00047614,0.0,0 STARLINK-3629,1 51774U 22017G   22196.91667824  .00047614  00000-0  29910-2 0  9994,2 51774  53.2147 202.1616 0001657  57.7161 332.8246 15.08823627 22860,6917.93,95.439,540.942,538.649,0.0
51774.0,STARLINK-3629,PAYLOAD,2022-07-16 14:00:01,15.08871131,0.0001784,53.2146,199.1701,50.6161,3.1234,-0.0028865,-0.00045973,0.0,0 STARLINK-3629,1 51774U 22017G   22197.58334491 -.00045973  00000-0 -28865-2 0  9995,2 51774  53.2146 199.1701 0001784  50.6161   3.1234 15.08871131 22961,6917.785,95.436,540.884,538.4159999999998,0.0
51774.0,STARLINK-3629,PAYLOAD,2022-07-16 22:00:00,15.08812451,0.0001578,53.2147,197.6723,57.6837,7.6796,0.002133,0.00033796,0.0,0 STARLINK-3629,1 51774U 22017G   22197.91667824  .00033796  00000-0  21330-2 0  9999,2 51774  53.2147 197.6723 0001578  57.6837   7.6796 15.08812451  1304,6917.965,95.439,540.9209999999998,538.738,0.0
51774.0,STARLINK-3629,PAYLOAD,2022-07-17 06:00:00,15.08838049,0.0001734,53.2148,196.1776,53.2707,23.6696,-0.0013631,-0.00021915,0.0,0 STARLINK-3629,1 51774U 22017G   22198.25001157 -.00021915  00000-0 -13631-2 0  9995,2 51774  53.2148 196.1776 0001734  53.2707  23.6696 15.08838049 23064,6917.886,95.438,540.951,538.552,0.0
51774.0,STARLINK-3629,PAYLOAD,2022-07-17 14:00:01,15.08844339,0.000174,53.2145,194.6809,51.1525,37.3693,-0.0012425,-0.00020011,0.0,0 STARLINK-3629,1 51774U 22017G   22198.58334491 -.00020011  00000-0 -12425-2 0  9997,2 51774  53.2145 194.6809 0001740  51.1525  37.3693 15.08844339  1304,6917.8669999999975,95.437,540.936,538.528,0.0
51774.0,STARLINK-3629,PAYLOAD,2022-07-17 22:00:00,15.08828166,0.0001645,53.2157,193.1835,57.2631,42.8527,0.00090364,0.00014118,0.0,0 STARLINK-3629,1 51774U 22017G   22198.91667824  .00014118  00000-0  90364-3 0  9991,2 51774  53.2157 193.1835 0001645  57.2631  42.8527 15.08828166  1306,6917.917,95.438,540.92,538.644,0.0
51774.0,STARLINK-3629,PAYLOAD,2022-07-18 14:00:01,15.08853146,0.0001788,53.2145,190.1918,52.5984,70.6886,-0.0015262,-0.00024504,0.0,0 STARLINK-3629,1 51774U 22017G   22199.58334491 -.00024504  00000-0 -15262-2 0  9991,2 51774  53.2145 190.1918 0001788  52.5984  70.6886 15.08853146  1302,6917.84,95.437,540.942,538.4680000000002,0.0
51774.0,STARLINK-3629,PAYLOAD,2022-07-18 22:00:00,15.08829743,0.0001717,53.2146,188.6941,60.0272,74.8629,0.0020417,0.00032346,0.0,0 STARLINK-3629,1 51774U 22017G   22199.91667824  .00032346  00000-0  20417-2 0  9996,2 51774  53.2146 188.6941 0001717  60.0272  74.8629 15.08829743  1304,6917.9119999999975,95.438,540.965,538.589,0.0
51774.0,STARLINK-3629,PAYLOAD,2022-07-19 00:00:00,15.08848218,0.0001732,53.215,188.3203,61.1872,166.5953,0.0002786,4.15e-05,0.0,0 STARLINK-3629,1 51774U 22017G   22200.00001157  .00004150  00000-0  27860-3 0  9992,2 51774  53.2150 188.3203 0001732  61.1872 166.5953 15.08848218 23336,6917.855,95.437,540.918,538.5219999999998,0.0
51774.0,STARLINK-3629,PAYLOAD,2022-07-19 14:00:01,15.08879716,0.0001813,53.2145,185.7025,52.71100000000001,105.3789,-0.0044601,-0.00070653,0.0,0 STARLINK-3629,1 51774U 22017G   22200.58334491 -.00070653  00000-0 -44601-2 0  9999,2 51774  53.2145 185.7025 0001813  52.7110 105.3789 15.08879716  1302,6917.759,95.435,540.878,538.37,0.0
